      2.10          N: GNSS NAV DATA                        RINEX VERSION / TYPE
fic2rin                                 01/16/2024 00:18:02 PGM / RUN BY / DATE
                                                            END OF HEADER
8  24  1 15  1 59 44.0 -.162135343999D-03 -.193267624127D-11  .000000000000D+00
     .170000000000D+02 -.173750000000D+02  .462447834237D-08 -.233252058577D+01
    -.113807618618D-05  .919987203088D-02  .105109065771D-04  .515357622147D+04
     .935840000000D+05 -.596046447754D-07 -.295936133282D+01 -.204890966415D-06
     .955551231664D+00  .176375000000D+03  .298531349223D+00 -.802747723379D-08
    -.371444043564D-09  .100000000000D+01  .229700000000D+04  .000000000000D+00
     .240000000000D+01  .000000000000D+00  .512227416039D-08  .170000000000D+02
     .864000000000D+05  .400000000000D+01
32 24  1 15 16  0  0.0 -.605259090662D-03 -.284217094304D-11  .000000000000D+00
     .530000000000D+02 -.105750000000D+03  .468412368398D-08 -.489476978944D+00
    -.538863241673D-05  .740506849252D-02  .849366188049D-05  .515362377167D+04
     .144000000000D+06  .242143869400D-07  .203595261451D+00  .102445483208D-06
     .961445031633D+00  .217406250000D+03 -.219954275432D+01 -.832856120372D-08
    -.238224208709D-09  .100000000000D+01  .229700000000D+04  .000000000000D+00
     .240000000000D+01  .000000000000D+00  .465661287308D-09  .530000000000D+02
     .136800000000D+06  .400000000000D+01
24 24  1 15 16  0  0.0 -.414329115301D-03 -.716227077646D-11  .000000000000D+00
     .670000000000D+02  .200937500000D+02  .489806116677D-08 -.303468606455D+01
     .804662704468D-06  .150470040971D-01  .125914812088D-04  .515374084091D+04
     .144000000000D+06  .726431608200D-07  .116665700774D+01 -.217929482460D-06
     .933717926882D+00  .117906250000D+03  .963127258688D+00 -.798033241288D-08
     .376801409577D-09  .100000000000D+01  .229700000000D+04  .000000000000D+00
     .240000000000D+01  .000000000000D+00  .232830643654D-08  .670000000000D+02
     .136800000000D+06  .400000000000D+01
29 24  1 15 16  0  0.0 -.608644448221D-03  .568434188608D-12  .000000000000D+00
     .800000000000D+02 -.104375000000D+02  .420303221602D-08 -.126702137447D+01
    -.664964318275D-06  .253181450535D-02  .100359320641D-04  .515366019630D+04
     .144000000000D+06  .149011611938D-07 -.285251794623D+01 -.111758708954D-07
     .973605998986D+00  .192312500000D+03  .252788488933D+01 -.793104464556D-08
    -.535022285826D-09  .100000000000D+01  .229700000000D+04  .000000000000D+00
     .240000000000D+01  .000000000000D+00 -.102445483208D-07  .800000000000D+02
     .136800000000D+06  .400000000000D+01
16 24  1 15 16  0  0.0 -.383565668017D-03  .773070496507D-11  .000000000000D+00
     .680000000000D+02  .236562500000D+02  .505449625434D-08 -.256272012724D+00
     .141002237797D-05  .139425647212D-01  .530853867531D-05  .515370740891D+04
     .144000000000D+06 -.260770320892D-07  .239513424028D+01  .160187482834D-06
     .962836035586D+00  .276750000000D+03  .817398039315D+00 -.859750097757D-08
    -.410731394325D-10  .100000000000D+01  .229700000000D+04  .000000000000D+00
     .240000000000D+01  .000000000000D+00 -.102445483208D-07  .680000000000D+02
     .136800000000D+06  .400000000000D+01
13 24  1 15 16  0  0.0  .616126693785D-03  .375166564481D-11  .000000000000D+00
     .380000000000D+02 -.849062500000D+02  .426767776591D-08 -.156718089300D+01
    -.445730984211D-05  .775778468233D-02  .100899487734D-04  .515366148376D+04
     .144000000000D+06  .158324837685D-06  .353313186947D+00  .260770320892D-07
     .971142736062D+00  .187468750000D+03  .948516425814D+00 -.786782772661D-08
    -.133576992589D-09  .100000000000D+01  .229700000000D+04  .000000000000D+00
     .240000000000D+01  .000000000000D+00 -.111758708954D-07  .380000000000D+02
     .136800000000D+06  .400000000000D+01
12 24  1 15 16  0  0.0 -.468155834824D-03 -.386535248253D-11  .000000000000D+00
     .790000000000D+02  .186250000000D+02  .494306304127D-08  .149767226420D+01
     .722706317902D-06  .892410741653D-02  .537186861038D-05  .515371723747D+04
     .144000000000D+06 -.108033418655D-06  .237712000896D+01 -.204890966415D-06
     .963263440269D+00  .276625000000D+03  .140515203349D+01 -.836820571221D-08
    -.492877673191D-10  .100000000000D+01  .229700000000D+04  .000000000000D+00
     .340000000000D+01  .000000000000D+00 -.125728547573D-07  .790000000000D+02
     .136800000000D+06  .400000000000D+01
8  24  1 15 16  0  0.0 -.162229873240D-03 -.193267624127D-11  .000000000000D+00
     .142000000000D+03 -.283437500000D+02  .466448000860D-08 -.126247255651D+01
    -.152550637722D-05  .920320604928D-02  .829622149467D-05  .515357148743D+04
     .144000000000D+06  .115483999252D-06 -.295976992145D+01 -.204890966415D-06
     .955526868227D+00  .216656250000D+03  .299326275501D+00 -.813533886952D-08
    -.468948104999D-09  .100000000000D+01  .229700000000D+04  .000000000000D+00
     .240000000000D+01  .000000000000D+00  .512227416039D-08  .142000000000D+03
     .136800000000D+06  .400000000000D+01
22 24  1 15 16  0  0.0  .477838329971D-04 -.648014975013D-11  .000000000000D+00
     .840000000000D+02  .181250000000D+02  .507021119465D-08 -.685038287829D+00
     .936910510063D-06  .146527523175D-01  .526197254658D-05  .515371503448D+04
     .144000000000D+06 -.119209289551D-06  .239843456006D+01 -.875443220139D-07
     .962127952514D+00  .281656250000D+03 -.114722570765D+01 -.868250451831D-08
     .217866217860D-10  .100000000000D+01  .229700000000D+04  .000000000000D+00
     .240000000000D+01  .000000000000D+00 -.111758708954D-07  .840000000000D+02
     .136800000000D+06  .400000000000D+01
21 24  1 15 16  0  0.0  .138312112540D-03 -.125055521494D-11  .000000000000D+00
     .630000000000D+02  .509687500000D+02  .432589447658D-08 -.127784471829D+01
     .256299972534D-05  .252227684250D-01  .108052045107D-04  .515373262024D+04
     .144000000000D+06 -.318512320518D-06 -.197076687645D+01 -.195577740669D-06
     .961774989880D+00  .180468750000D+03 -.649885905374D+00 -.821355641331D-08
     .419303179946D-09  .100000000000D+01  .229700000000D+04  .000000000000D+00
     .240000000000D+01  .000000000000D+00 -.102445483208D-07  .630000000000D+02
     .136800000000D+06  .400000000000D+01
15 24  1 15 16  0  0.0  .117522198707D-03  .386535248253D-11  .000000000000D+00
     .860000000000D+02 -.110218750000D+03  .509771234018D-08 -.223801040904D+01
    -.573322176933D-05  .154321850277D-01  .695139169693D-05  .515359765816D+04
     .144000000000D+06  .171363353729D-06  .650885812807D-01  .670552253723D-07
     .934623973491D+00  .221968750000D+03  .128644926157D+01 -.827963059413D-08
    -.122505102829D-09  .100000000000D+01  .229700000000D+04  .000000000000D+00
     .240000000000D+01  .000000000000D+00 -.102445483208D-07  .860000000000D+02
     .136800000000D+06  .400000000000D+01
9  24  1 15 16  0  0.0  .597559846938D-04  .122781784739D-10  .000000000000D+00
     .750000000000D+02 -.102125000000D+03  .461412076808D-08 -.798174870044D+00
    -.550411641598D-05  .287839327939D-02  .848434865475D-05  .515374627113D+04
     .144000000000D+06 -.353902578354D-07  .189493500662D+00 -.167638063431D-07
     .957952067486D+00  .218312500000D+03  .201395233519D+01 -.822034241026D-08
    -.137505727665D-09  .100000000000D+01  .229700000000D+04  .000000000000D+00
     .240000000000D+01  .000000000000D+00  .139698386192D-08  .750000000000D+02
     .136800000000D+06  .400000000000D+01
6  24  1 15 16  0  0.0  .443707220256D-03 -.133013600134D-10  .000000000000D+00
     .720000000000D+02  .787812500000D+02  .369586823346D-08  .309123147927D+01
     .411458313465D-05  .311070785392D-02  .955536961555D-05  .515354940033D+04
     .144000000000D+06  .149011611938D-07 -.186896319290D+01 -.745058059692D-08
     .989551636352D+00  .213312500000D+03 -.809142837944D+00 -.768174854709D-08
     .169292766009D-09  .100000000000D+01  .229700000000D+04  .000000000000D+00
     .240000000000D+01  .000000000000D+00  .372529029846D-08  .720000000000D+02
     .136800000000D+06  .400000000000D+01
17 24  1 15 16  0  0.0  .719807576388D-03 -.909494701773D-12  .000000000000D+00
     .780000000000D+02 -.775000000000D+01  .431303679815D-08 -.120484583320D+01
    -.361353158951D-06  .136865469394D-01  .979192554951D-05  .515365632439D+04
     .144000000000D+06 -.301748514175D-06 -.286718359318D+01  .132247805595D-06
     .971242296414D+00  .202312500000D+03 -.134608916497D+01 -.815569686037D-08
    -.478234206089D-09  .100000000000D+01  .229700000000D+04  .000000000000D+00
     .340000000000D+01  .000000000000D+00 -.111758708954D-07  .780000000000D+02
     .136800000000D+06  .400000000000D+01
20 24  1 15 16  0  0.0  .391392968595D-03 -.193267624127D-11  .000000000000D+00
     .530000000000D+02  .264687500000D+02  .492413368136D-08 -.266392221645D+01
     .142678618431D-05  .397651200183D-02  .285916030407D-05  .515369564629D+04
     .144000000000D+06  .242143869400D-07 -.100759224994D+01 -.484287738800D-07
     .951822369051D+00  .318281250000D+03 -.267202470234D+01 -.852428364206D-08
     .259653672761D-09  .100000000000D+01  .229700000000D+04  .000000000000D+00
     .240000000000D+01  .000000000000D+00 -.838190317154D-08  .530000000000D+02
     .136800000000D+06  .400000000000D+01
26 24  1 15 16  0  0.0  .200057402253D-03 -.352429196937D-11  .000000000000D+00
     .700000000000D+02  .385937500000D+02  .572738142557D-08  .552742955940D+00
     .221468508244D-05  .875455222558D-02  .523589551449D-05  .515356302834D+04
     .144000000000D+06 -.186264514923D-08  .223207304484D+01  .838190317154D-07
     .931784720139D+00  .259656250000D+03  .519384220769D+00 -.883286792440D-08
     .439304013061D-10  .100000000000D+01  .229700000000D+04  .000000000000D+00
     .240000000000D+01  .000000000000D+00  .698491930962D-08  .700000000000D+02
     .136800000000D+06  .400000000000D+01
